GLOBALSTAR M023         
1 25621U 99004A   25296.62817720 -.00000120  00000+0 -88337-4 0  9992
2 25621  52.0133  22.3323 0010336  53.4193  88.2265 12.62507637231955
GLOBALSTAR M040         
1 25622U 99004B   25296.97657196 -.00000023  00000+0  45041-3 0  9995
2 25622  51.9943  25.6161 0000321 347.2751 183.5773 12.62020632231516
GLOBALSTAR M036         
1 25623U 99004C   25296.61221388 -.00000042  00000+0  59337-3 0  9991
2 25623  51.9958 261.8169 0010602 298.2421 234.1669 11.86612399194222
GLOBALSTAR M038         
1 25624U 99004D   25296.62159684 -.00000080  00000+0  12358-3 0  9996
2 25624  51.9982  61.6897 0001173 343.0850  30.1682 12.32534347218215
GLOBALSTAR M022         
1 25649U 99012A   25296.98768544 -.00000029  00000+0  69602-3 0  9999
2 25649  52.0040 300.7624 0002873  66.8798 316.3014 12.02504875191873
GLOBALSTAR M041         
1 25650U 99012B   25296.68205518 -.00000119  00000+0 -43041-3 0  9995
2 25650  52.0005 186.9612 0000810 181.8026 178.2808 11.96680766193669
GLOBALSTAR M046         
1 25651U 99012C   25296.93857564 -.00000074  00000+0  15747-3 0  9999
2 25651  52.0054 246.3295 0001978 134.4781 268.0185 12.09415153199247
GLOBALSTAR M037         
1 25652U 99012D   25296.92117535 -.00000064  00000+0  22100-3 0  9996
2 25652  51.9984 152.0135 0002914 101.4696   3.4732 12.62453081227538
